_id,ADDRESS_POINT_ID,ADDRESS_NUMBER,LINEAR_NAME_FULL,ADDRESS_FULL,POSTAL_CODE,MUNICIPALITY,CITY,CENTRELINE_ID,LO_NUM,LO_NUM_SUF,HI_NUM,HI_NUM_SUF,LINEAR_NAME_ID,WARD_NAME,MI_PRINX,OBJECTID,CAPACITY,MULTIMODAL,SEASONAL,SHELTERED,SURFACE,STATUS,LOCATION,NOTES,MAP_CLASS,geometry
1,51630,5,Bartonville Ave E,5 Bartonville Ave E,M6M 2B1,YORK,Toronto,20112838,5,None,,None,433,York South-Weston (505),2876415,1,8,No,No,No,asphalt,Delivered, ,No bolt down - in York District,Multi-Bike Rack,"{""type"": ""MultiPoint"", ""coordinates"": [[-79.4945826626564, 43.689484593934]]}"
2,310564,150,Borough Dr,150 Borough Dr,M1P 4N7,SCARBOROUGH,Toronto,107945,150,None,,None,7397,Scarborough Centre (2121),3838259,2,8,Yes,No,No, ,Installed,Scarborough Civic Centre,adjacent to civic centre & Square,Multi-Bike Rack,"{""type"": ""MultiPoint"", ""coordinates"": [[-79.2572409577755, 43.772810595742]]}"
3,367443,71,New Forest Sq,71 New Forest Sq,M1V 2Z6,SCARBOROUGH,Toronto,20050441,71,None,,None,9497,Scarborough-Agincourt (2222),1739719,3,8,No,No,No,concrete,Installed, ,60m south of Steeles on W side of Kennedy (closest valid address),Multi-Bike Rack,"{""type"": ""MultiPoint"", ""coordinates"": [[-79.3074473906934, 43.8230331061332]]}"
4,379258,95,River Grove Dr,95 River Grove Dr,M1W 3T8,SCARBOROUGH,Toronto,20052191,95,None,,None,8803,Scarborough-Agincourt (2222),1926239,4,8,No,No,No,concrete,Installed, ,S-W corner of Birchmount & Steeles (closest valid address),Multi-Bike Rack,"{""type"": ""MultiPoint"", ""coordinates"": [[-79.3173896510384, 43.8209470944401]]}"
5,394585,24,Victoria Park Ave,24 Victoria Park Ave,M4E 3R9,SCARBOROUGH,Toronto,113274,24,None,,None,370,Beaches-East York (1919),2770103,5,8,No,No,No, ,Installed, ,One 8-bike rack on TTC property,Multi-Bike Rack,"{""type"": ""MultiPoint"", ""coordinates"": [[-79.2810262938561, 43.6753630680448]]}"
6,772775,315,Bloor St W,315 Bloor St W,M5S 1A3,former TORONTO,Toronto,1142564,315,None,,None,458,University-Rosedale (1111),1591359,6,8,No,No,No,concrete,Installed, ,White mark,Multi-Bike Rack,"{""type"": ""MultiPoint"", ""coordinates"": [[-79.3985624500635, 43.6674469424306]]}"
7,772800,398,Bloor St W,398 Bloor St W,M5S 1X4,former TORONTO,Toronto,1142870,398,None,,None,458,University-Rosedale (1111),2042974,7,16,No,No,No,asphalt,Approved, ,50m north of Bloor,Multi-Bike Rack,"{""type"": ""MultiPoint"", ""coordinates"": [[-79.4073484623935, 43.6661256151956]]}"
8,772833,481,Bloor St W,481 Bloor St W,M5S 1X9,former TORONTO,Toronto,1142870,481,None,,None,458,University-Rosedale (1111),1755303,8,8,No,No,No,asphalt,Approved, ,bikes face east,Multi-Bike Rack,"{""type"": ""MultiPoint"", ""coordinates"": [[-79.4071172092532, 43.6657537893633]]}"
9,772852,509,Bloor St W,509 Bloor St W,M5S 1Y2,former TORONTO,Toronto,1142919,509,None,,None,458,University-Rosedale (1111),2459164,9,8,No,No,No,asphalt,Installed, ,in exchange for Borden corral,Multi-Bike Rack,"{""type"": ""MultiPoint"", ""coordinates"": [[-79.4083859964734, 43.6654609016074]]}"
10,772899,612,Bloor St W,612 Bloor St W,M6G 1K7,former TORONTO,Toronto,1143160,612,None,,None,458,University-Rosedale (1111),1777979,10,8,No,No,No,concrete,Installed, , ,Multi-Bike Rack,"{""type"": ""MultiPoint"", ""coordinates"": [[-79.4138388158142, 43.6647341700049]]}"
11,773004,813,Bloor St W,813 Bloor St W,M6G 1L8,former TORONTO,Toronto,30039479,813,None,,None,458,University-Rosedale (1111),3302429,11,8,No,No,No, ,Installed, ,Montrose - Dufferin Streetscaping,Multi-Bike Rack,"{""type"": ""MultiPoint"", ""coordinates"": [[-79.4217629457737, 43.6625538116032]]}"
12,773067,890,Bloor St W,890 Bloor St W,M6G 1M5,former TORONTO,Toronto,1143576,890,None,,None,458,University-Rosedale (1111),1811755,12,8,Yes,No,No,concrete,Approved,Ossington TTC,adjacent Bike Share stn - councillor request,Multi-Bike Rack,"{""type"": ""MultiPoint"", ""coordinates"": [[-79.4255756769579, 43.6622248200601]]}"
13,773157,1032,Bloor St W,1032 Bloor St W,M6H 1M2,former TORONTO,Toronto,1143789,1032,None,,None,458,Davenport (909),2708366,13,8,No,No,No, ,Installed, ,One 8-bike rack,Multi-Bike Rack,"{""type"": ""MultiPoint"", ""coordinates"": [[-79.4316062598435, 43.6609569224604]]}"
14,773158,1034,Bloor St W,1034 Bloor St W,M6H 1M3,former TORONTO,Toronto,1143821,1034,None,,None,458,Davenport (909),2512369,14,5,No,No,No, ,Installed, ,One 5-bike angled rack,Multi-Bike Rack (Angled),"{""type"": ""MultiPoint"", ""coordinates"": [[-79.4319342255372, 43.6608848734219]]}"
15,773911,122,Bond St,122 Bond St,M5B 1X8,former TORONTO,Toronto,14021112,122,None,,None,3029,Toronto Centre (1313),2034865,15,16,No,No,No,marble paver,Installed, ,white mark,Multi-Bike Rack,"{""type"": ""MultiPoint"", ""coordinates"": [[-79.3791387851816, 43.6573781216217]]}"
16,773913,137,Bond St,137 Bond St,M5B 1Y2,former TORONTO,Toronto,14021112,137,None,,None,3029,Toronto Centre (1313),1862386,16,8,No,No,No,concrete,Installed, ,"bikes face east, white mark",Multi-Bike Rack,"{""type"": ""MultiPoint"", ""coordinates"": [[-79.3787181688475, 43.6578227118334]]}"
17,785313,429,College St,429 College St,M5T 1T2,former TORONTO,Toronto,1144402,429,None,,None,9765,University-Rosedale (1111),1518130,17,8,No,No,No,concrete,Installed, ,5m from info pillar,Multi-Bike Rack,"{""type"": ""MultiPoint"", ""coordinates"": [[-79.4072847841266, 43.6562832334016]]}"
18,785507,802,College St,802 College St,M6G 1C8,former TORONTO,Toronto,1144782,802,None,,None,9765,University-Rosedale (1111),1984091,18,8,No,No,No,pavers,Installed, , ,Multi-Bike Rack,"{""type"": ""MultiPoint"", ""coordinates"": [[-79.4217098646824, 43.6548443189396]]}"
19,785590,940,College St,940 College St,M6H 1A5,former TORONTO,Toronto,14018364,940,None,,None,9765,Davenport (909),2583303,19,8,No,No,No,concrete,Installed, ,Councillor request,Multi-Bike Rack,"{""type"": ""MultiPoint"", ""coordinates"": [[-79.4266277065843, 43.6537429799659]]}"
20,825934,55,John St,55 John St,M5V 3C6,former TORONTO,Toronto,1146312,55,None,,None,9747,Spadina-Fort York (1010),2825729,20,16,No,No,No, ,Installed,Metro Hall,at rotunda,Multi-Bike Rack,"{""type"": ""MultiPoint"", ""coordinates"": [[-79.3889314920572, 43.6461537935103]]}"
21,828085,200,King St E,200 King St E,M5A 3W8,former TORONTO,Toronto,1145266,200,None,,None,3779,Toronto Centre (1313),2728735,21,16,No,No,No, ,Installed, ,east side of George north of King in No Parking zone,Multi-Bike Rack,"{""type"": ""MultiPoint"", ""coordinates"": [[-79.3701856494981, 43.651100464219]]}"
22,828221,150,King St W,150 King St W,M5H 1J9,former TORONTO,Toronto,1145855,150,None,,None,3780,Spadina-Fort York (1010),2778660,22,8,Yes,No,No,marble,Installed,King TTC, ,Multi-Bike Rack,"{""type"": ""MultiPoint"", ""coordinates"": [[-79.3842322745632, 43.6482142784795]]}"
23,856375,100,Queen St W,100 Queen St W,M5H 2N1,former TORONTO,Toronto,1145216,100,None,,None,4238,Spadina-Fort York (1010),4326298,23,40,No,No,No, ,Installed,City Hall,Inside parking garage,Multi-Bike Rack,"{""type"": ""MultiPoint"", ""coordinates"": [[-79.3836250552132, 43.6528221423182]]}"
24,856701,686,Queen St W,686 Queen St W,M6J 1E7,former TORONTO,Toronto,1146191,686,None,,None,4238,Spadina-Fort York (1010),1824985,24,10,No,No,Yes, ,Installed, ,on the Euclid boulevard 25m north of Queen,Bike Shelter,"{""type"": ""MultiPoint"", ""coordinates"": [[-79.4079437964715, 43.646578203587]]}"
25,866475,180,Shaw St,180 Shaw St,M6J 2W5,former TORONTO,Toronto,14018156,180,None,,None,4388,Spadina-Fort York (1010),2662860,25,18,No,No,Yes, ,Installed, ,Queen West Parking Study; Artscape Youngplace,Bike Shelter,"{""type"": ""MultiPoint"", ""coordinates"": [[-79.4175862610454, 43.6468989083573]]}"
26,880972,241,Wellington St W,241 Wellington St W,None,former TORONTO,Toronto,1146352,241,None,,None,4652,Spadina-Fort York (1010),2708750,26,16,No,No,No,concrete,Installed, ,"on John St, 50m south of Wellington",Multi-Bike Rack,"{""type"": ""MultiPoint"", ""coordinates"": [[-79.3900134101984, 43.6449521397727]]}"
27,887713,1140,Yonge St,1140 Yonge St,M4W 2L8,former TORONTO,Toronto,1140465,1140,None,,None,4733,University-Rosedale (1111),2567776,27,8,No,No,No,concrete,Installed, ,west of post box,Multi-Bike Rack,"{""type"": ""MultiPoint"", ""coordinates"": [[-79.3910471597584, 43.6795102439657]]}"
28,2767344,5,Bellevue Ave,5 Bellevue Ave,None,former TORONTO,Toronto,2767316,5,None,,None,2983,University-Rosedale (1111),3835209,28,14,No,No,No, ,Proposed, ,east side of Augusta at park in P& D,Multi-Bike Rack,"{""type"": ""MultiPoint"", ""coordinates"": [[-79.4019219860659, 43.653721716631]]}"
29,2854062,522,University Ave,522 University Ave,M5G 1W7,former TORONTO,Toronto,2854059,522,None,,None,4583,University-Rosedale (1111),1684029,29,16,No,No,No,concrete,Installed, ,adjacent to planters,Multi-Bike Rack,"{""type"": ""MultiPoint"", ""coordinates"": [[-79.3893801203605, 43.6559184351809]]}"
30,3120556,1030,King St W,1030 King St W,M6K 0B4,former TORONTO,Toronto,3155022,1030,None,,None,3780,Spadina-Fort York (1010),2290040,30,16,No,No,No,concrete,Installed, ,at Strachan  and west at Sleep Country,Multi-Bike Rack,"{""type"": ""MultiPoint"", ""coordinates"": [[-79.4157586754681, 43.6415808536674]]}"
31,6047970,901,King St W,901 King St W,M5V 3H5,former TORONTO,Toronto,14024874,901,None,,None,3780,Spadina-Fort York (1010),1560247,31,8,No,No,No,pavers,Installed, ,white mark,Multi-Bike Rack,"{""type"": ""MultiPoint"", ""coordinates"": [[-79.4112467839912, 43.641872432814]]}"
32,6292601,3530,Sheppard Ave E,3530 Sheppard Ave E,M1T 3K7,SCARBOROUGH,Toronto,6292597,3530,None,,None,6698,Scarborough-Agincourt (2222),2527726,32,8,No,No,No, ,Installed, ,Mayor's Office request,Multi-Bike Rack,"{""type"": ""MultiPoint"", ""coordinates"": [[-79.303096242086, 43.7812077532627]]}"
33,6620141,991,Woodbine Ave,991 Woodbine Ave,None,former TORONTO,Toronto,14023398,991,None,,None,391,Beaches-East York (1919),3167183,33,32,Yes,No,No,concrete,Approved,Woodbine TTC,Awaiting TTC construction (Woodbine Station),Multi-Bike Rack,"{""type"": ""MultiPoint"", ""coordinates"": [[-79.3127678972541, 43.6864135582527]]}"
34,6924847,725,Bathurst St,725 Bathurst St,M5S 2R5,former TORONTO,Toronto,6924827,725,None,,None,436,University-Rosedale (1111),2865477,34,14,No,No,No, ,Installed, ,"On grass, across from CSI/Theatre",Multi-Bike Rack,"{""type"": ""MultiPoint"", ""coordinates"": [[-79.4098085572117, 43.6627041125525]]}"
35,6924850,702,Bathurst St,702 Bathurst St,M5S 2R4,former TORONTO,Toronto,6924849,702,None,,None,436,University-Rosedale (1111),2449394,35,14,No,Yes,No, ,Installed, ,north side of Herrick,Bike Corral,"{""type"": ""MultiPoint"", ""coordinates"": [[-79.4105046596053, 43.6627422312458]]}"
36,7389731,71,Second St,71 Second St,M8V 2X4,ETOBICOKE,Toronto,7389724,71,None,,None,2447,Etobicoke-Lakeshore (303),2197834,36,8,No,No,No,concrete,Installed, ,0.5m back from limit of concrete,Multi-Bike Rack,"{""type"": ""MultiPoint"", ""coordinates"": [[-79.4997662581739, 43.6036684223915]]}"
37,7466874,516,Glenlake Ave,516 Glenlake Ave,None,former TORONTO,Toronto,7466844,516,None,,None,3546,Parkdale-High Park (404),3835905,37,8,No,No,No,brick pavers,Installed, ,TDSB request for Ursula Franklin Academy,Multi-Bike Rack,"{""type"": ""MultiPoint"", ""coordinates"": [[-79.4741048220362, 43.6561212464489]]}"
38,7553263,1186,Queen St W,1186 Queen St W,M6J 1J6,former TORONTO,Toronto,7553262,1186,None,,None,4238,Davenport (909),3054362,38,14,No,No,No, ,Installed, ,"parking stall design; on Northcote, not Queen",Multi-Bike Rack,"{""type"": ""MultiPoint"", ""coordinates"": [[-79.4262248352553, 43.6429348457192]]}"
39,7569577,798,Richmond St W,798 Richmond St W,M6J 3P3,former TORONTO,Toronto,7569576,798,None,,None,4277,Spadina-Fort York (1010),1684783,39,24,No,No,No,concrete,Installed, ,on Niagara betw tree pits,Multi-Bike Rack,"{""type"": ""MultiPoint"", ""coordinates"": [[-79.4098108572165, 43.6451297244944]]}"
40,7570973,12,Ossington Ave,12 Ossington Ave,M6J 2Y7,former TORONTO,Toronto,7570969,12,None,,None,4125,Spadina-Fort York (1010),3040336,40,5,No,No,No,concrete,Installed, ,1m south of bus stop,Multi-Bike Rack (Angled),"{""type"": ""MultiPoint"", ""coordinates"": [[-79.4193781682054, 43.6444593301141]]}"
41,7641979,21,Gerrard St E,21 Gerrard St E,None,former TORONTO,Toronto,7641994,21,None,,None,3495,Toronto Centre (1313),3168834,41,16,No,No,No,concrete,Installed, ,White mark,Multi-Bike Rack,"{""type"": ""MultiPoint"", ""coordinates"": [[-79.3810999113837, 43.6591625171397]]}"
42,10924257,83,Gould St,83 Gould St,None,former TORONTO,Toronto,10924256,83,None,,None,3563,Toronto Centre (1313),2526316,42,8,No,No,No,brick pavers,Approved, ,On hold,Multi-Bike Rack,"{""type"": ""MultiPoint"", ""coordinates"": [[-79.3766028005129, 43.6583472608541]]}"
43,7642554,277,Victoria St,277 Victoria St,M5B 1W2,former TORONTO,Toronto,30075808,277,None,,None,9790,Toronto Centre (1313),4096749,43,8,No,No,No,concrete,Installed, , ,Multi-Bike Rack,"{""type"": ""MultiPoint"", ""coordinates"": [[-79.3793385702209, 43.6565589127866]]}"
44,7730077,400,Yonge St,400 Yonge St,None,former TORONTO,Toronto,7730098,400,None,,None,4733,University-Rosedale (1111),3176699,44,8,No,No,No,concrete,Installed, ,white mark,Multi-Bike Rack,"{""type"": ""MultiPoint"", ""coordinates"": [[-79.3826468222595, 43.6595417671268]]}"
45,7730108,350,Victoria St,350 Victoria St,M5B 2K3,former TORONTO,Toronto,30060911,350,None,,None,9790,Toronto Centre (1313),3802769,45,8,No,No,No,pavers,Installed, ,white mark,Multi-Bike Rack,"{""type"": ""MultiPoint"", ""coordinates"": [[-79.3804798260292, 43.6577656354656]]}"
46,7792268,595,Bay St,595 Bay St,M5G 2C2,former TORONTO,Toronto,7792266,595,None,,None,2962,University-Rosedale (1111),2103912,46,8,No,No,No,concrete,Installed, ,adjacent to planter,Multi-Bike Rack,"{""type"": ""MultiPoint"", ""coordinates"": [[-79.3832978278682, 43.6562124477002]]}"
47,7792587,790,Bay St,790 Bay St,M5G 1N8,former TORONTO,Toronto,7792579,790,None,,None,2962,University-Rosedale (1111),2383398,47,8,No,No,No,pavers,Installed, , ,Multi-Bike Rack,"{""type"": ""MultiPoint"", ""coordinates"": [[-79.3861750845428, 43.6604459643503]]}"
48,7929475,357,Bay St,357 Bay St,M5H 2T7,former TORONTO,Toronto,7929469,357,None,,None,2962,Toronto Centre (1313),2561155,48,8,No,No,No,concrete,Installed, ,white mark,Multi-Bike Rack,"{""type"": ""MultiPoint"", ""coordinates"": [[-79.3808769998818, 43.6508344042378]]}"
49,7929674,200,King St W,200 King St W,M5H 3T4,former TORONTO,Toronto,7929673,200,None,,None,3780,Spadina-Fort York (1010),1684104,49,8,Yes,No,No,marble,Installed,King TTC, ,Multi-Bike Rack,"{""type"": ""MultiPoint"", ""coordinates"": [[-79.3857204176048, 43.6479052737837]]}"
50,7939998,10,Linnsmore Cres,10 Linnsmore Cres,M4J 4J6,former TORONTO,Toronto,14023269,10,None,,None,11375,Toronto-Danforth (1414),2047844,50,8,Yes,No,No,concrete,Installed,Greenwood TTC,just south of doors,Multi-Bike Rack,"{""type"": ""MultiPoint"", ""coordinates"": [[-79.330292170892, 43.6825720317075]]}"
51,7939998,10,Linnsmore Cres,10 Linnsmore Cres,M4J 4J6,former TORONTO,Toronto,14023269,10,None,,None,11375,Toronto-Danforth (1414),2047844,51,10,Yes,No,No,concrete,Installed,Greenwood TTC, ,Multi-Bike Rack,"{""type"": ""MultiPoint"", ""coordinates"": [[-79.330292170892, 43.6825720317075]]}"
52,7994464,40,High Park Ave,40 High Park Ave,M6P 2S1,former TORONTO,Toronto,7994458,40,None,,None,3660,Parkdale-High Park (404),2146844,52,20,Yes,No,Yes, ,Installed,High Park TTC,"Public Realm project,  Installed at back of walk",Bike Shelter,"{""type"": ""MultiPoint"", ""coordinates"": [[-79.4663681354934, 43.6547112224016]]}"
53,8292528,666,Queen St E,666 Queen St E,M4M 1G8,former TORONTO,Toronto,8292524,666,None,,None,4237,Toronto-Danforth (1414),4093504,53,8,No,No,No,concrete,Installed, , ,Multi-Bike Rack,"{""type"": ""MultiPoint"", ""coordinates"": [[-79.3515005142531, 43.6586988939243]]}"
54,8312904,1595,Dupont St,1595 Dupont St,M6P 3S8,former TORONTO,Toronto,8312902,1595,None,,None,3343,Davenport (909),2446517,54,8,No,No,No,pavers,Installed, ,restaurant request,Multi-Bike Rack,"{""type"": ""MultiPoint"", ""coordinates"": [[-79.4542193055903, 43.6649358894462]]}"
55,8344816,87,Front St E,87 Front St E,M5E 1B8,former TORONTO,Toronto,8344810,87,None,,None,3471,Toronto Centre (1313),3006161,55,14,No,Yes,No, ,Installed, ,"lay-by on south side, c. Market St - BIA in favour",Bike Corral,"{""type"": ""MultiPoint"", ""coordinates"": [[-79.3722000572823, 43.6487470958429]]}"
56,8353493,266,King St E,266 King St E,M5A 1K3,former TORONTO,Toronto,8353517,266,None,,None,3779,Toronto Centre (1313),2593639,56,8,No,No,No,concrete,Installed, , ,Multi-Bike Rack,"{""type"": ""MultiPoint"", ""coordinates"": [[-79.3663420506319, 43.6519627216596]]}"
57,8408498,2,Bloor St W,2 Bloor St W,M4W 3E2,former TORONTO,Toronto,10759265,2,None,,None,458,University-Rosedale (1111),2772524,57,8,Yes,No,No,concrete,Installed,Bloor-Yonge TTC,north of post-and-rings on Yonge at Cumberland Terrace entrance,Multi-Bike Rack,"{""type"": ""MultiPoint"", ""coordinates"": [[-79.3872300479029, 43.6704004360083]]}"
58,8408615,12,Madison Ave,12 Madison Ave,M5R 2S1,former TORONTO,Toronto,30104520,12,None,,None,3896,University-Rosedale (1111),4281523,58,8,Yes,No,No,concrete,Installed, , ,Multi-Bike Rack,"{""type"": ""MultiPoint"", ""coordinates"": [[-79.4033213402764, 43.6677591999227]]}"
59,8408616,14,Madison Ave,14 Madison Ave,M5R 2S1,former TORONTO,Toronto,30104520,14,None,,None,3896,University-Rosedale (1111),4281541,59,8,Yes,No,No,concrete,TBD, ,107m N of Bloor,Multi-Bike Rack,"{""type"": ""MultiPoint"", ""coordinates"": [[-79.4033717235135, 43.6678664664031]]}"
60,8416837,692,Bloor St W,692 Bloor St W,M6G 1L4,former TORONTO,Toronto,8416823,692,None,,None,458,University-Rosedale (1111),1543974,60,16,Yes,No,No,concrete,Installed, , ,Multi-Bike Rack,"{""type"": ""MultiPoint"", ""coordinates"": [[-79.4174332539337, 43.6639772447612]]}"
61,8416838,693,Bloor St W,693 Bloor St W,M6G 1L5,former TORONTO,Toronto,8416823,693,None,,None,458,University-Rosedale (1111),2916406,61,8,No,No,No,concrete,Installed, , ,Multi-Bike Rack,"{""type"": ""MultiPoint"", ""coordinates"": [[-79.4173511984097, 43.6635409715405]]}"
62,8416907,675,Bloor St W,675 Bloor St W,M6G 1L3,former TORONTO,Toronto,8416891,675,None,,None,458,University-Rosedale (1111),2602654,62,48,No,No,No,asphalt,Installed, ,3 racks moved from Wood St for Bike Share relocation,Multi-Bike Rack,"{""type"": ""MultiPoint"", ""coordinates"": [[-79.4162538549835, 43.663806234493]]}"
63,8417835,1,Albany Ave,1 Albany Ave,M5R 3C2,former TORONTO,Toronto,14014600,1,None,,None,2859,University-Rosedale (1111),2322513,63,8,No,No,No,asphalt,TBD, , ,Multi-Bike Rack,"{""type"": ""MultiPoint"", ""coordinates"": [[-79.4099385908683, 43.6657201946865]]}"
64,9212592,275,Cherry St,275 Cherry St,M5A 3L3,former TORONTO,Toronto,14066690,275,None,,None,3154,Toronto-Danforth (1414),2417310,64,8,No,No,No,brick paver,TBD, ,Determine if needed,Multi-Bike Rack,"{""type"": ""MultiPoint"", ""coordinates"": [[-79.3523310913658, 43.6455974145097]]}"
65,9468140,20,Northcote Ave,20 Northcote Ave,None,former TORONTO,Toronto,14018614,20,None,,None,4070,Davenport (909),2647569,65,10,No,No,Yes, ,Installed, ,"on the boulevard, 40m north of Queen",Bike Shelter,"{""type"": ""MultiPoint"", ""coordinates"": [[-79.4264347476873, 43.6431255580551]]}"
66,9879850,483,Bay St,483 Bay St,M5G 2C9,former TORONTO,Toronto,9879849,483,None,,None,2962,Toronto Centre (1313),2475636,66,8,No,No,No,concrete,Approved, ,white mark east of bike parking,Multi-Bike Rack,"{""type"": ""MultiPoint"", ""coordinates"": [[-79.3820471150729, 43.653750140071]]}"
67,9980057,1978,Queen St E,1978 Queen St E,M4L 1H8,former TORONTO,Toronto,9980046,1978,None,,None,4237,Beaches-East York (1919),1766950,67,8,No,No,No,concrete,Installed, ,To replace P&R (2),Multi-Bike Rack,"{""type"": ""MultiPoint"", ""coordinates"": [[-79.3011363154956, 43.6699728610104]]}"
68,9980658,449,Parliament St,449 Parliament St,M5A 3A3,former TORONTO,Toronto,14023933,449,None,,None,4162,Toronto Centre (1313),2211932,68,8,No,No,No,concrete,Installed, ,adjacent to south side of No Frills,Multi-Bike Rack,"{""type"": ""MultiPoint"", ""coordinates"": [[-79.3671626414988, 43.6635065844204]]}"
69,10034904,953,Gerrard St E,953 Gerrard St E,M4M 1Z4,former TORONTO,Toronto,30107057,953,None,,None,3495,Toronto-Danforth (1414),4297754,69,16,No,No,No,concrete,Installed, , ,Multi-Bike Rack,"{""type"": ""MultiPoint"", ""coordinates"": [[-79.3393969830404, 43.668053671131]]}"
70,10180172,621,King St W,621 King St W,M5V 1M5,former TORONTO,Toronto,14674278,621,None,,None,3780,Spadina-Fort York (1010),3037504,70,8,No,No,No,concrete,Installed, ,east side of planter,Multi-Bike Rack,"{""type"": ""MultiPoint"", ""coordinates"": [[-79.4011498459826, 43.6440028829522]]}"
71,10222755,511,King St W,511 King St W,M5V 2Z4,former TORONTO,Toronto,10222754,511,None,,None,3780,Spadina-Fort York (1010),2243171,71,8,No,No,No,concrete,Installed, ,west of main door,Multi-Bike Rack,"{""type"": ""MultiPoint"", ""coordinates"": [[-79.3978494175301, 43.6446235513294]]}"
72,10223670,441,King St W,441 King St W,M5V 1K4,former TORONTO,Toronto,10223667,441,None,,None,3780,Spadina-Fort York (1010),3339643,72,8,No,No,No,concrete,Installed, , ,Multi-Bike Rack,"{""type"": ""MultiPoint"", ""coordinates"": [[-79.3956715228578, 43.6451488396696]]}"
73,10223676,468,King St W,468 King St W,M5V 1L8,former TORONTO,Toronto,10223667,468,None,,None,3780,Spadina-Fort York (1010),2696110,73,8,No,No,No,concrete,Installed, ,west of main door,Multi-Bike Rack,"{""type"": ""MultiPoint"", ""coordinates"": [[-79.3959267185292, 43.645545087493]]}"
74,10223683,500,King St W,500 King St W,M5V 1L9,former TORONTO,Toronto,10223667,500,None,,None,3780,Spadina-Fort York (1010),2680137,74,8,No,No,No,concrete,Installed, , ,Multi-Bike Rack,"{""type"": ""MultiPoint"", ""coordinates"": [[-79.3968051380048, 43.6453156558296]]}"
75,10258457,40,Orchard View Blvd,40 Orchard View Blvd,M4R 1B9,former TORONTO,Toronto,10258454,40,None,,None,4111,Eglinton-Lawrence (808),3006674,75,8,No,No,No,concrete,Installed, ,Public Library,Multi-Bike Rack,"{""type"": ""MultiPoint"", ""coordinates"": [[-79.4000640484789, 43.7082699050511]]}"
76,10334643,12,Emerson Ave,12 Emerson Ave,M6H 3S8,former TORONTO,Toronto,14012771,12,None,,None,3396,Davenport (909),2196073,76,14,Yes,Yes,No, ,Installed, ,west side of Emerson at subway lay-by,Bike Corral,"{""type"": ""MultiPoint"", ""coordinates"": [[-79.4413132921915, 43.6593829779361]]}"
77,10335151,695,Lansdowne Ave,695 Lansdowne Ave,M6H 3Y9,former TORONTO,Toronto,14012788,695,None,,None,3814,Davenport (909),3219969,77,8,Yes,No,No, ,Installed,Lansdowne TTC,Councillor request,Multi-Bike Rack,"{""type"": ""MultiPoint"", ""coordinates"": [[-79.4428104294615, 43.6591290436207]]}"
78,10386594,743,Pape Ave,743 Pape Ave,M4K 3T1,former TORONTO,Toronto,10386591,743,None,,None,280,Toronto-Danforth (1414),2293016,78,32,Yes,No,No, ,Installed,Pape TTC,Four 8-bike racks on TTC property,Multi-Bike Rack,"{""type"": ""MultiPoint"", ""coordinates"": [[-79.3450123847713, 43.6798873239788]]}"
79,10430677,2000,Yonge St,2000 Yonge St,M4S 1Z7,former TORONTO,Toronto,10430667,2000,None,,None,4733,Toronto-St. Paul's (1212),2078078,79,8,No,No,No,concrete,Installed, ,on Glebe Rd W.,Multi-Bike Rack,"{""type"": ""MultiPoint"", ""coordinates"": [[-79.3973815441376, 43.7004743321706]]}"
80,10494377,222,Spadina Ave,222 Spadina Ave,M5T 3B3,former TORONTO,Toronto,10494181,222,None,,None,4426,Spadina-Fort York (1010),2882926,80,16,No,No,No,concrete,Installed, , ,Multi-Bike Rack,"{""type"": ""MultiPoint"", ""coordinates"": [[-79.3978377650267, 43.6509286638588]]}"
81,10537872,175,Mount Olive Dr,175 Mount Olive Dr,M9V 2E3,ETOBICOKE,Toronto,30108313,175,None,,None,2145,Etobicoke North (101),4305375,81,32,No,No,No, ,Installed, ,four 8-bike racks TDSB install at Smithfield M.S.,Multi-Bike Rack,"{""type"": ""MultiPoint"", ""coordinates"": [[-79.5957518765444, 43.7500111297374]]}"
82,10576714,892,College St,892 College St,M6H 1A4,former TORONTO,Toronto,10576713,892,None,,None,9765,Davenport (909),1858675,82,8,No,No,No,concrete,Installed, , ,Multi-Bike Rack,"{""type"": ""MultiPoint"", ""coordinates"": [[-79.4253918390163, 43.654012535761]]}"
83,10576975,834,College St,834 College St,M6H 1A2,former TORONTO,Toronto,10576972,834,None,,None,9765,Davenport (909),2335698,83,8,No,No,No,concrete,Installed, , ,Multi-Bike Rack,"{""type"": ""MultiPoint"", ""coordinates"": [[-79.4229242760469, 43.6544914449878]]}"
84,10576992,860,College St,860 College St,M6H 1A2,former TORONTO,Toronto,10576972,860,None,,None,9765,Davenport (909),2883544,84,8,No,No,No,brick pavers,Installed, , ,Multi-Bike Rack,"{""type"": ""MultiPoint"", ""coordinates"": [[-79.4238539128414, 43.6544574848038]]}"
85,10736597,362,Bloor St W,362 Bloor St W,M5S 1X2,former TORONTO,Toronto,10736589,362,None,,None,458,University-Rosedale (1111),1777874,85,8,Yes,No,No,concrete,Installed,Spadina TTC, ,Multi-Bike Rack,"{""type"": ""MultiPoint"", ""coordinates"": [[-79.4057839572486, 43.6665134281721]]}"
86,10736616,513,Bloor St W,513 Bloor St W,M5S 1Y4,former TORONTO,Toronto,10736609,513,None,,None,458,University-Rosedale (1111),3012709,86,8,No,No,No,asphalt,Approved, ,at end of parking box/ on hold,Multi-Bike Rack,"{""type"": ""MultiPoint"", ""coordinates"": [[-79.4087877229711, 43.6654264506937]]}"
87,10736643,19,Spadina Rd,19 Spadina Rd,M5R 2S9,former TORONTO,Toronto,14239870,19,None,,None,4428,University-Rosedale (1111),2216427,87,16,Yes,No,No, ,TBD,Spadina TTC,TPA Lot #231 property,Multi-Bike Rack,"{""type"": ""MultiPoint"", ""coordinates"": [[-79.404040159637, 43.6679326401944]]}"
88,10864283,28,Duncan St,28 Duncan St,None,former TORONTO,Toronto,14036084,28,None,,None,3331,Spadina-Fort York (1010),1684105,88,14,No,Yes,No, ,Installed, ,opposite OCADU building,Bike Corral,"{""type"": ""MultiPoint"", ""coordinates"": [[-79.3892098795828, 43.6487811930649]]}"
89,10864312,61,Front St W,61 Front St W,M5J 1E5,former TORONTO,Toronto,10864309,61,None,,None,3472,Spadina-Fort York (1010),2850404,89,72,Yes,No,No, ,Installed,Union GO,indoor and outdoor,Multi-Bike Rack,"{""type"": ""MultiPoint"", ""coordinates"": [[-79.3800700536371, 43.6452454056884]]}"
90,10906649,720,Bay St,720 Bay St,M5G 2K1,former TORONTO,Toronto,10906644,720,None,,None,2962,University-Rosedale (1111),2413629,90,8,No,No,No,pavers,Installed, , ,Multi-Bike Rack,"{""type"": ""MultiPoint"", ""coordinates"": [[-79.3854849354963, 43.6588371126302]]}"
91,11075760,95,Front St E,95 Front St E,M5E 1C2,former TORONTO,Toronto,11075761,95,None,,None,3471,Toronto Centre (1313),1977101,91,8,No,No,No, ,Installed, ,"St Lawrence Mkt renos: angled rack reclaimed for lack of use, one 8-bike",Multi-Bike Rack,"{""type"": ""MultiPoint"", ""coordinates"": [[-79.3714937127787, 43.6491812588323]]}"
92,11180397,49,Givins St,49 Givins St,M6J 2X5,former TORONTO,Toronto,11180398,49,None,,None,3505,Spadina-Fort York (1010),3038912,92,8,No,No,No, ,Installed, ,Queen West Study,Multi-Bike Rack,"{""type"": ""MultiPoint"", ""coordinates"": [[-79.4175842923766, 43.6464076573477]]}"
93,11272519,1560,Yonge St,1560 Yonge St,M4T 2S9,former TORONTO,Toronto,14242419,1560,None,,None,4733,Toronto-St. Paul's (1212),2325615,93,8,No,No,No,concrete,Installed, ,on Delisle,Multi-Bike Rack,"{""type"": ""MultiPoint"", ""coordinates"": [[-79.3951269012401, 43.6896783530003]]}"
94,11272587,2180,Yonge St,2180 Yonge St,M4S 2B9,former TORONTO,Toronto,14230407,2180,None,,None,4733,Toronto-St. Paul's (1212),2232065,94,8,Yes,No,No,concrete,Proposed,Eglinton TTC,on sidewalk over subway track,Multi-Bike Rack,"{""type"": ""MultiPoint"", ""coordinates"": [[-79.3982471384521, 43.7046384671636]]}"
95,11462071,245,Church St,245 Church St,None,former TORONTO,Toronto,11462072,245,None,,None,503,Toronto Centre (1313),1511565,95,8,No,No,No,Concrete,Approved, ,Pink marks,Multi-Bike Rack,"{""type"": ""MultiPoint"", ""coordinates"": [[-79.3773887817368, 43.6576414017323]]}"
96,12107167,490,Bloor St W,490 Bloor St W,M5S 1X8,former TORONTO,Toronto,12107157,490,None,,None,458,University-Rosedale (1111),3012691,96,8,No,No,No,asphalt,Installed, , ,Multi-Bike Rack,"{""type"": ""MultiPoint"", ""coordinates"": [[-79.4097622062528, 43.6656283409671]]}"
97,12107174,537,Bloor St W,537 Bloor St W,M5S 1Y5,former TORONTO,Toronto,12107157,537,None,,None,458,University-Rosedale (1111),3012694,97,8,No,No,No,asphalt,Approved, ,at end of parking box/ on hold,Multi-Bike Rack,"{""type"": ""MultiPoint"", ""coordinates"": [[-79.4096694707703, 43.6652219653756]]}"
98,12427667,665,Lawrence Ave W,665 Lawrence Ave W,None,NORTH YORK,Toronto,12427668,665,None,,None,732,Eglinton-Lawrence (808),3128291,98,8,Yes,No,No,concrete,Approved,Lawrence West TTC,north side entrance,Multi-Bike Rack,"{""type"": ""MultiPoint"", ""coordinates"": [[-79.4441078550566, 43.7157840452693]]}"
99,12562241,375,St Clair Ave W,375 St Clair Ave W,None,former TORONTO,Toronto,30076115,375,None,,None,890,Toronto-St. Paul's (1212),4103980,99,20,Yes,No,Yes, ,Installed,St Clair West TTC,"Public Realm project,  Installed at back of walk",Bike Shelter,"{""type"": ""MultiPoint"", ""coordinates"": [[-79.4143290305209, 43.6836946284848]]}"
100,13968174,38,Orchard View Blvd,38 Orchard View Blvd,M4R 2G3,former TORONTO,Toronto,10258454,38,None,,None,4111,Eglinton-Lawrence (808),2210418,100,8,No,No,No,interlock,Installed, , ,Multi-Bike Rack,"{""type"": ""MultiPoint"", ""coordinates"": [[-79.3996801445734, 43.708216713311]]}"
101,13991066,584,Bloor St W,584 Bloor St W,M6G 1K4,former TORONTO,Toronto,8353520,584,None,,None,458,University-Rosedale (1111),1661356,101,8,Yes,No,No,brick pavers,Installed,Bathurst TTC, ,Multi-Bike Rack,"{""type"": ""MultiPoint"", ""coordinates"": [[-79.4126936121623, 43.6651006726937]]}"
102,13991178,213,Delaware Ave,213 Delaware Ave,M6H 2T4,former TORONTO,Toronto,20033433,213,None,,None,3283,Davenport (909),2874672,102,5,Yes,No,No, ,Installed,Ossington TTC,One 5-bike angled rack on TTC property,Multi-Bike Rack (Angled),"{""type"": ""MultiPoint"", ""coordinates"": [[-79.4278708182001, 43.6620573990966]]}"
103,14120392,736,Bay St,736 Bay St,M5G 2M4,former TORONTO,Toronto,7792579,736,None,,None,2962,University-Rosedale (1111),2058168,103,8,No,No,No,pavers,Installed, , ,Multi-Bike Rack,"{""type"": ""MultiPoint"", ""coordinates"": [[-79.3856470367783, 43.6593434836347]]}"
104,14171704,300,Victoria St,300 Victoria St,None,former TORONTO,Toronto,30075809,300,None,,None,9790,Toronto Centre (1313),4096755,104,8,No,No,No,concrete,Installed, ,white mark,Multi-Bike Rack,"{""type"": ""MultiPoint"", ""coordinates"": [[-79.3802376738898, 43.6575126331536]]}"
105,14188604,826,Yonge St,826 Yonge St,M4W 2H1,former TORONTO,Toronto,8677490,826,None,,None,4733,University-Rosedale (1111),2008928,105,8,No,No,No,concrete,Proposed, ,north of post-and-rings on Yonge,Multi-Bike Rack,"{""type"": ""MultiPoint"", ""coordinates"": [[-79.387392039273, 43.6712088519618]]}"
106,14199241,11,Charlotte St,11 Charlotte St,M5V 0M6,former TORONTO,Toronto,14025593,11,None,,None,3147,Spadina-Fort York (1010),4094529,106,8,No,No,No,pavers,Installed, ,Councillor request,Multi-Bike Rack,"{""type"": ""MultiPoint"", ""coordinates"": [[-79.3936698784778, 43.6463778424247]]}"
107,14206623,2198,Yonge St,2198 Yonge St,M4S 2B8,former TORONTO,Toronto,14230407,2198,None,,None,4733,Toronto-St. Paul's (1212),2862848,107,16,Yes,No,No,concrete,Installed,Eglinton TTC, ,Multi-Bike Rack,"{""type"": ""MultiPoint"", ""coordinates"": [[-79.3984238947494, 43.7058827894496]]}"
108,14207146,205,Spadina Ave,205 Spadina Ave,M5T 2C7,former TORONTO,Toronto,10494196,205,None,,None,4426,Spadina-Fort York (1010),2071735,108,16,No,No,No, ,Installed, ,lay-by,Bike Corral,"{""type"": ""MultiPoint"", ""coordinates"": [[-79.3966190321934, 43.6504254363213]]}"
109,14210057,896,Danforth Ave,896 Danforth Ave,M4J 1L9,former TORONTO,Toronto,7930789,896,None,,None,86,Toronto-Danforth (1414),1720587,109,16,No,No,No,concrete,Approved, ,Pink marks/approved for 2 racks,Multi-Bike Rack,"{""type"": ""MultiPoint"", ""coordinates"": [[-79.3392690699878, 43.6802527580594]]}"
110,14210930,1036,Bloor St W,1036 Bloor St W,M6H 1M3,former TORONTO,Toronto,1143821,1036,None,,None,458,Davenport (909),1894655,110,8,No,No,No, ,Installed, ,Montrose - Dufferin streetscaping,Multi-Bike Rack,"{""type"": ""MultiPoint"", ""coordinates"": [[-79.4319383641102, 43.6608213173929]]}"
111,14210933,5,Salem Ave,5 Salem Ave,M6H 3C2,former TORONTO,Toronto,14011464,5,None,,None,4354,Davenport (909),2071514,111,8,No,No,No, ,Installed, ,Montrose - Dufferin streetscaping,Multi-Bike Rack,"{""type"": ""MultiPoint"", ""coordinates"": [[-79.4315601023945, 43.6608451251421]]}"
112,14211049,5,Walmer Rd,5 Walmer Rd,None,former TORONTO,Toronto,10759044,5,None,,None,940,University-Rosedale (1111),2071516,112,8,Yes,No,No,concrete,Installed,Spadina TTC, ,Multi-Bike Rack,"{""type"": ""MultiPoint"", ""coordinates"": [[-79.4053783829308, 43.6667025082735]]}"
113,14659357,350,King St W,350 King St W,M5V 3X5,former TORONTO,Toronto,10458506,350,None,,None,3780,Spadina-Fort York (1010),1604772,113,14,No,No,No, ,Installed, ,P&D adjacent to Bell Lightbox bike parking,Multi-Bike Rack,"{""type"": ""MultiPoint"", ""coordinates"": [[-79.3904508904479, 43.6466460321677]]}"
114,20040470,65,Dundas St W,65 Dundas St W,M5G 2C3,former TORONTO,Toronto,7762832,65,None,,None,558,Toronto Centre (1313),2304022,114,32,No,No,No,concrete,Installed, , ,Multi-Bike Rack,"{""type"": ""MultiPoint"", ""coordinates"": [[-79.3830072851693, 43.6555937758623]]}"
115,20111213,22,Fort York Blvd,22 Fort York Blvd,M5V 3Z2,former TORONTO,Toronto,20035046,22,None,,None,15826,Spadina-Fort York (1010),1988105,115,8,No,No,No,concrete,Installed, ,Moved from 351 Bremner Blvd to supermarket,Multi-Bike Rack,"{""type"": ""MultiPoint"", ""coordinates"": [[-79.394196399307, 43.6405581341618]]}"
116,20140670,101,Sherbourne St,101 Sherbourne St,M5A 2R3,former TORONTO,Toronto,1144819,101,None,,None,4391,Toronto Centre (1313),2211089,116,8,No,No,No,concrete,Installed, , ,Multi-Bike Rack,"{""type"": ""MultiPoint"", ""coordinates"": [[-79.3689116973164, 43.6536621558492]]}"
117,20362129,163,Dan Leckie Way,163 Dan Leckie Way,M5V 4A8,former TORONTO,Toronto,20364648,163,None,,None,17007,Spadina-Fort York (1010),3819492,117,8,No,No,No,concrete,Installed, ,south side planter,Multi-Bike Rack,"{""type"": ""MultiPoint"", ""coordinates"": [[-79.3980686081508, 43.6400541998146]]}"
118,20364714,82,Fort York Blvd,82 Fort York Blvd,M5V 4A6,former TORONTO,Toronto,30036751,82,None,,None,15826,Spadina-Fort York (1010),3792847,118,8,No,No,No,pavers,Installed, , ,Multi-Bike Rack,"{""type"": ""MultiPoint"", ""coordinates"": [[-79.3967708309412, 43.6400217734976]]}"
119,20364734,157,Dan Leckie Way,157 Dan Leckie Way,M5V 4A8,former TORONTO,Toronto,20364648,157,None,,None,17007,Spadina-Fort York (1010),3819491,119,8,No,No,No,concrete,Installed, ,south side planter,Multi-Bike Rack,"{""type"": ""MultiPoint"", ""coordinates"": [[-79.3980055327274, 43.6398931179216]]}"
120,30015516,150,Dan Leckie Way,150 Dan Leckie Way,M5V 0C9,former TORONTO,Toronto,20364648,150,None,,None,17007,Spadina-Fort York (1010),4336398,120,8,No,No,No,concrete,Installed, ,adjacent to central planter,Multi-Bike Rack,"{""type"": ""MultiPoint"", ""coordinates"": [[-79.39844180131, 43.6396291898843]]}"
121,30018521,60,Carlton St,60 Carlton St,M5B 1J2,former TORONTO,Toronto,14023522,60,None,,None,3116,Toronto Centre (1313),3326675,121,8,No,No,No,concrete,Installed, ,rack is already there: bolt down,Multi-Bike Rack,"{""type"": ""MultiPoint"", ""coordinates"": [[-79.3800330023465, 43.662060942439]]}"
122,30019115,35D,Bathurst St,35D Bathurst St,M5V 2P2,former TORONTO,Toronto,8457361,35,D,,None,436,Spadina-Fort York (1010),3017563,122,8,No,No,No,brick pavers,Installed, , ,Multi-Bike Rack,"{""type"": ""MultiPoint"", ""coordinates"": [[-79.4017249691284, 43.642225715835]]}"
123,30025064,78,Tecumseth St,78 Tecumseth St,M5V 0A9,former TORONTO,Toronto,20053421,78,None,,None,4534,Spadina-Fort York (1010),3274602,123,8,No,No,No,concrete,Installed, ,at south side of publication boxes,Multi-Bike Rack,"{""type"": ""MultiPoint"", ""coordinates"": [[-79.4054414221864, 43.6430480473063]]}"
124,30028624,539,Parliament St,539 Parliament St,M4X 1P7,former TORONTO,Toronto,9980335,539,None,,None,4162,Toronto Centre (1313),3215110,124,8,No,No,No,brick pavers,Installed, , ,Multi-Bike Rack,"{""type"": ""MultiPoint"", ""coordinates"": [[-79.3684723713959, 43.6660407871926]]}"
125,30033362,992,College St,992 College St,M6H 1A7,former TORONTO,Toronto,7531273,992,None,,None,9765,Davenport (909),3269927,125,8,No,No,No,granite,Approved, ,no mark,Multi-Bike Rack,"{""type"": ""MultiPoint"", ""coordinates"": [[-79.4284417018728, 43.6533514907281]]}"
126,30033825,636,Queen St E,636 Queen St E,M4M 1G3,former TORONTO,Toronto,11585489,636,None,,None,4237,Toronto-Danforth (1414),3272256,126,8,No,No,No,concrete,Installed, , ,Multi-Bike Rack,"{""type"": ""MultiPoint"", ""coordinates"": [[-79.3525953501831, 43.6584322328156]]}"
127,30035742,44,Lisgar St,44 Lisgar St,None,former TORONTO,Toronto,14024655,44,None,,None,3859,Davenport (909),3277255,127,8,No,No,No,concrete,Installed, ,eastern border of Lisgar Park,Multi-Bike Rack,"{""type"": ""MultiPoint"", ""coordinates"": [[-79.4234411856628, 43.6420865352289]]}"
128,30035743,36,Lisgar St,36 Lisgar St,M6J 0C7,former TORONTO,Toronto,14024655,36,None,,None,3859,Davenport (909),3277451,128,8,No,No,No,concrete,Installed, ,ignore markings to south,Multi-Bike Rack,"{""type"": ""MultiPoint"", ""coordinates"": [[-79.4233157461113, 43.6417386470507]]}"
129,30038007,47,Lower River St,47 Lower River St,M5A 0G1,former TORONTO,Toronto,30037989,47,None,,None,19546,Toronto Centre (1313),3296643,129,24,No,No,No,Concrete/interlock,Installed, , ,Multi-Bike Rack,"{""type"": ""MultiPoint"", ""coordinates"": [[-79.3555410507722, 43.6564985969752]]}"
130,30039986,92,Fort York Blvd,92 Fort York Blvd,M5V 4A7,former TORONTO,Toronto,30036751,92,None,,None,15826,Spadina-Fort York (1010),3303574,130,8,No,No,No,pavers,Installed, , ,Multi-Bike Rack,"{""type"": ""MultiPoint"", ""coordinates"": [[-79.3969681695071, 43.6399814003219]]}"
131,30069161,35,York St,35 York St,M5J 0C7,former TORONTO,Toronto,13975053,35,None,,None,4735,Spadina-Fort York (1010),3833298,131,30,No,No,No, ,Installed, ,indoor and outdoor,Multi-Bike Rack (Angled),"{""type"": ""MultiPoint"", ""coordinates"": [[-79.3814651014112, 43.6437906731595]]}"
132,30072958,1190,Dundas St E,1190 Dundas St E,M4M 0C5,former TORONTO,Toronto,7576995,1190,None,,None,3334,Toronto-Danforth (1414),4071796,132,8,No,No,No,concrete,Installed, ,east side of planter,Multi-Bike Rack,"{""type"": ""MultiPoint"", ""coordinates"": [[-79.3410336331932, 43.665267525614]]}"
133,30085026,60,Lisgar St,60 Lisgar St,None,former TORONTO,Toronto,14024655,60,None,,None,3859,Davenport (909),4160009,133,8,No,No,No,concrete,Installed, ,eastern border of Lisgar Park,Multi-Bike Rack,"{""type"": ""MultiPoint"", ""coordinates"": [[-79.423617099708, 43.6424141048796]]}"
134,10154425,1,St Clair Ave E,1 St Clair Ave E,M4T 2V7,former TORONTO,Toronto,10154405,1,None,,None,339,Toronto-St. Paul's (1212),2847275,134,8,Yes,No,No,concrete,Installed,St Clair TTC, ,Multi-Bike Rack,"{""type"": ""MultiPoint"", ""coordinates"": [[-79.3935708744087, 43.6879111568366]]}"
135,856375,100,Queen St W,100 Queen St W,M5H 2N1,former TORONTO,Toronto,1145216,100,None,,None,4238,Spadina-Fort York (1010),4326298,135,40,No,No,No, ,Installed,City Hall, ,Multi-Bike Rack,"{""type"": ""MultiPoint"", ""coordinates"": [[-79.3836250552132, 43.6528221423182]]}"
136,856375,100,Queen St W,100 Queen St W,M5H 2N1,former TORONTO,Toronto,1145216,100,None,,None,4238,Spadina-Fort York (1010),4326298,136,40,No,No,No, ,Installed,City Hall, ,Multi-Bike Rack,"{""type"": ""MultiPoint"", ""coordinates"": [[-79.3836250552132, 43.6528221423182]]}"
137,8408498,2,Bloor St W,2 Bloor St W,M4W 3E2,former TORONTO,Toronto,10759265,2,None,,None,458,University-Rosedale (1111),2772524,137,24,Yes,No,No,concrete,Installed,Bloor-Yonge TTC, ,Multi-Bike Rack,"{""type"": ""MultiPoint"", ""coordinates"": [[-79.3872300479029, 43.6704004360083]]}"
138,14171704,300,Victoria St,300 Victoria St,None,former TORONTO,Toronto,30075809,300,None,,None,9790,Toronto Centre (1313),4096755,138,8,No,No,No,concrete,Installed, , ,Multi-Bike Rack,"{""type"": ""MultiPoint"", ""coordinates"": [[-79.3802376738898, 43.6575126331536]]}"
139,14171704,300,Victoria St,300 Victoria St,None,former TORONTO,Toronto,30075809,300,None,,None,9790,Toronto Centre (1313),4096755,139,8,No,No,No,concrete,Installed, , ,Multi-Bike Rack,"{""type"": ""MultiPoint"", ""coordinates"": [[-79.3802376738898, 43.6575126331536]]}"
140,14171704,300,Victoria St,300 Victoria St,None,former TORONTO,Toronto,30075809,300,None,,None,9790,Toronto Centre (1313),4096755,140,8,No,No,No,concrete,Installed, , ,Multi-Bike Rack,"{""type"": ""MultiPoint"", ""coordinates"": [[-79.3802376738898, 43.6575126331536]]}"
141,7641709,26,Dundas St E,26 Dundas St E,M5B 2L6,former TORONTO,Toronto,7641747,26,None,,None,3334,Toronto Centre (1313),3191929,141,8,No,No, ,concrete,Installed,front of walk,"bikes face east, temporary for construction",Multi-Bike Rack,"{""type"": ""MultiPoint"", ""coordinates"": [[-79.3799775246031, 43.6565175761293]]}"
142,10476750,432,Queen St W,432 Queen St W,M5V 2A8,former TORONTO,Toronto,10476749,432,None,,None,4238,Spadina-Fort York (1010),2506480,142,8,No,No, ,concrete,Approved,back of walk, ,Multi-Bike Rack,"{""type"": ""MultiPoint"", ""coordinates"": [[-79.398630335813, 43.6485021072402]]}"
143,10476770,535,Queen St W,535 Queen St W,M5V 2B4,former TORONTO,Toronto,10476749,535,None,,None,4238,Spadina-Fort York (1010),2896759,143,8,No,No, ,concrete,Approved,back of walk,"bikes face east, on 'patio' area",Multi-Bike Rack,"{""type"": ""MultiPoint"", ""coordinates"": [[-79.3994405382004, 43.6479215867374]]}"
144,10476744,577,Queen St W,577 Queen St W,M5V 2B6,former TORONTO,Toronto,14035954,577,None,,None,4238,Spadina-Fort York (1010),1545270,144,8,No,No, ,concrete,Approved,boulevard, ,Multi-Bike Rack,"{""type"": ""MultiPoint"", ""coordinates"": [[-79.401204136409, 43.6475959428991]]}"
145,8031478,6,Denison Ave,6 Denison Ave,M5T 2M4,former TORONTO,Toronto,14020795,6,None,,None,3287,Spadina-Fort York (1010),2989294,145,8,No,No, ,concrete,Approved,boulevard, ,Multi-Bike Rack,"{""type"": ""MultiPoint"", ""coordinates"": [[-79.4008703416954, 43.6481285977303]]}"
146,845809,60,Murray St,60 Murray St,M5T 3L9,former TORONTO,Toronto,1144428,60,None,,None,4037,University-Rosedale (1111),2290088,146,8,No,No, ,concrete,Approved,back of walk,part of re-org of Mt Sinai H. parking,Multi-Bike Rack,"{""type"": ""MultiPoint"", ""coordinates"": [[-79.3916755977089, 43.6578863392835]]}"
147,772910,624,Bloor St W,624 Bloor St W,M6G 1K7,former TORONTO,Toronto,1143160,624,None,,None,458,University-Rosedale (1111),2242898,147,5,No,No, ,concrete,Installed,front of walk,angled rack adjacent tree box,Multi-Bike Rack,"{""type"": ""MultiPoint"", ""coordinates"": [[-79.4143421803121, 43.664633544282]]}"
148,772936,656,Bloor St W,656 Bloor St W,M6G 1K9,former TORONTO,Toronto,1143206,656,None,,None,458,University-Rosedale (1111),2942115,148,5,No,No, ,concrete,Approved,front of walk,angled rack adjacent tree box,Multi-Bike Rack (Angled),"{""type"": ""MultiPoint"", ""coordinates"": [[-79.4156143632259, 43.6643796535901]]}"
149,8416907,675,Bloor St W,675 Bloor St W,M6G 1L3,former TORONTO,Toronto,8416891,675,None,,None,458,University-Rosedale (1111),2602654,149,8,No,No, ,asphalt,Installed,boulevard,moved fr Wood St for Bike Share relocate,Multi-Bike Rack,"{""type"": ""MultiPoint"", ""coordinates"": [[-79.4162538549835, 43.663806234493]]}"
150,37440,998,Woodbine Ave,998 Woodbine Ave,M4C 4C1,EAST YORK,Toronto,1789,998,None,,None,391,Beaches-East York (1919),1535595,150,8,Yes,No, ,concrete,Approved,back of walk,bikes face north at subway access,Multi-Bike Rack,"{""type"": ""MultiPoint"", ""coordinates"": [[-79.313530664026, 43.6865385459791]]}"
151,7553175,1184,Queen St W,1184 Queen St W,M6J 1J5,former TORONTO,Toronto,7553178,1184,None,,None,4238,Davenport (909),2956109,151,14,No,Yes,No, ,Installed, ,3 posts,Bike Corral,"{""type"": ""MultiPoint"", ""coordinates"": [[-79.4257846968092, 43.6430284991501]]}"
152,8293016,1485,Dupont St,1485 Dupont St,M6P 3S2,former TORONTO,Toronto,14013265,1485,None,,None,3343,Davenport (909),4160513,152,14,No,Yes,No, ,Proposed, , ,Bike Corral,"{""type"": ""MultiPoint"", ""coordinates"": [[-79.4501905747648, 43.6657993325492]]}"
153,14069353,192,Spadina Ave,192 Spadina Ave,M5T 2C2,former TORONTO,Toronto,10494196,192,None,,None,4426,Spadina-Fort York (1010),1871353,153,14,No,Yes,No, ,Proposed, ,3 posts,Bike Corral,"{""type"": ""MultiPoint"", ""coordinates"": [[-79.3976488984162, 43.6499378951888]]}"
154,854435,50,Portland St,50 Portland St,M5V 2M7,former TORONTO,Toronto,14025624,50,None,,None,9780,Spadina-Fort York (1010),4254740,154,14,No,Yes,No, ,Installed, , ,Bike Corral,"{""type"": ""MultiPoint"", ""coordinates"": [[-79.3999654356682, 43.6433952592458]]}"
155,30035793,92,Sudbury St,92 Sudbury St,M6J 0C5,former TORONTO,Toronto,7553518,92,None,,None,4502,Davenport (909),4328917,155,14,No,Yes,No, ,Installed, ,councillor request,Bike Corral,"{""type"": ""MultiPoint"", ""coordinates"": [[-79.4231656377467, 43.6413458972849]]}"
156,828085,200,King St E,200 King St E,M5A 3W8,former TORONTO,Toronto,1145266,200,None,,None,3779,Toronto Centre (1313),2728735,156,14,No,Yes,No, ,Installed, ,east side of George north of King in No Parking zone,Bike Corral,"{""type"": ""MultiPoint"", ""coordinates"": [[-79.3701856494981, 43.651100464219]]}"
157,30088196,10,Liberty St,10 Liberty St,M6K 1A5,former TORONTO,Toronto,7553393,10,None,,None,3847,Spadina-Fort York (1010),4164518,157,8,No,No, ,concrete,Approved,front of walk,straight rack,Multi-Bike Rack,"{""type"": ""MultiPoint"", ""coordinates"": [[-79.4199066719827, 43.6386435442814]]}"
158,7929399,121,King St W,121 King St W,M5H 3T9,former TORONTO,Toronto,7929394,121,None,,None,3780,Spadina-Fort York (1010),2321542,158,5,No,No, ,pavers,Approved,front of walk,angled rack,Multi-Bike Rack (Angled),"{""type"": ""MultiPoint"", ""coordinates"": [[-79.3829847674411, 43.6476845202227]]}"
159,7929479,141,Adelaide St W,141 Adelaide St W,M5H 3L5,former TORONTO,Toronto,7929478,141,None,,None,2852,Spadina-Fort York (1010),1855409,159,8,No,No, ,granite,Proposed,front of walk,for King St pilot,Multi-Bike Rack,"{""type"": ""MultiPoint"", ""coordinates"": [[-79.3844104470327, 43.6489559550756]]}"
160,7929404,150,York St,150 York St,M5H 3S5,former TORONTO,Toronto,7929403,150,None,,None,4735,Spadina-Fort York (1010),2045337,160,5,No,No, ,concrete,Proposed,front of walk,angled rack adjacent tree box,Multi-Bike Rack (Angled),"{""type"": ""MultiPoint"", ""coordinates"": [[-79.3845937898897, 43.6496799218384]]}"
161,8676901,151,Yonge St,151 Yonge St,M5C 2W7,former TORONTO,Toronto,8676900,151,None,,None,4733,Toronto Centre (1313),2197930,161,5,No,No, ,concrete,Approved,front of walk,angled rack adjacent tree box,Multi-Bike Rack (Angled),"{""type"": ""MultiPoint"", ""coordinates"": [[-79.3784968736165, 43.6514779807832]]}"
162,14204767,157,Adelaide St W,157 Adelaide St W,M5H 4E7,former TORONTO,Toronto,7929478,157,None,,None,2852,Spadina-Fort York (1010),2268248,162,8,No,No, ,concrete,Approved,back of walk,Request from Street Furniture,Multi-Bike Rack,"{""type"": ""MultiPoint"", ""coordinates"": [[-79.3850607472314, 43.6488103116239]]}"
163,877900,181,University Ave,181 University Ave,M5H 2X7,former TORONTO,Toronto,1145635,181,None,,None,4583,Spadina-Fort York (1010),1917050,163,5,No,No, ,concrete,Proposed,front of walk,angled rack,Multi-Bike Rack (Angled),"{""type"": ""MultiPoint"", ""coordinates"": [[-79.3851943077926, 43.6492184325944]]}"
164,7929597,22,Duncan St,22 Duncan St,M5H 3G8,former TORONTO,Toronto,7929624,22,None,,None,3331,Spadina-Fort York (1010),3015504,164,8,No,No, ,concrete,Approved,front of walk,straight rack,Multi-Bike Rack,"{""type"": ""MultiPoint"", ""coordinates"": [[-79.388784780298, 43.647986085895]]}"
165,12763910,263,Adelaide St W,263 Adelaide St W,M5H 1Y2,former TORONTO,Toronto,12763900,263,None,,None,2852,Spadina-Fort York (1010),2150387,165,5,No,No, ,concrete,Approved,front of walk,angled rack,Multi-Bike Rack (Angled),"{""type"": ""MultiPoint"", ""coordinates"": [[-79.3894769208324, 43.647833688966]]}"
166,14606355,30,Adelaide St E,30 Adelaide St E,M5C 3G8,former TORONTO,Toronto,8313387,30,None,,None,2851,Toronto Centre (1313),3006210,166,5,No,No, ,concrete,Approved,front of walk,angled rack,Multi-Bike Rack (Angled),"{""type"": ""MultiPoint"", ""coordinates"": [[-79.3768638205442, 43.6510113401962]]}"
167,9947960,339,George St,339 George St,M5A 2N2,former TORONTO,Toronto,30073975,339,None,,None,9743,Toronto Centre (1313),4083034,167,5,No,No, ,concrete,Approved,front of walk,angled rack adjacent tree box,Multi-Bike Rack (Angled),"{""type"": ""MultiPoint"", ""coordinates"": [[-79.374261956555, 43.6599474627779]]}"
168,828038,50,King St E,50 King St E,M5C 1E5,former TORONTO,Toronto,1145520,50,None,,None,3779,Toronto Centre (1313),3006364,168,5,No,No, ,concrete,Approved,front of walk,angled rack,Multi-Bike Rack (Angled),"{""type"": ""MultiPoint"", ""coordinates"": [[-79.3762416344609, 43.6497660862272]]}"
169,30084097,531,Adelaide St W,531 Adelaide St W,M5V 0N8,former TORONTO,Toronto,10223941,531,None,,None,2852,Spadina-Fort York (1010),4159374,169,5,No,No, ,pavers,Approved,front of walk,angled rack,Multi-Bike Rack (Angled),"{""type"": ""MultiPoint"", ""coordinates"": [[-79.4023931702317, 43.6452154906684]]}"
170,30066955,551,Adelaide St W,551 Adelaide St W,M5V 0N8,former TORONTO,Toronto,10223941,551,None,,None,2852,Spadina-Fort York (1010),3828840,170,5,No,No, ,pavers,Proposed,front of walk,angled rack,Multi-Bike Rack (Angled),"{""type"": ""MultiPoint"", ""coordinates"": [[-79.402751782814, 43.6451624811927]]}"
171,8353525,588,Bloor St W,588 Bloor St W,M6G 1K4,former TORONTO,Toronto,8353520,588,None,,None,458,University-Rosedale (1111),2568679,171,5,No,No, ,concrete,Proposed,front of walk,angled rack adjacent tree box,Multi-Bike Rack (Angled),"{""type"": ""MultiPoint"", ""coordinates"": [[-79.4128894477569, 43.6651544340614]]}"
172,14206202,607,Bloor St W,607 Bloor St W,M6G 1K5,former TORONTO,Toronto,8353520,607,None,,None,458,University-Rosedale (1111),2210315,172,16,No,No, ,pavers,Approved,front of walk,in blvd,Multi-Bike Rack,"{""type"": ""MultiPoint"", ""coordinates"": [[-79.4132708419764, 43.6645203907742]]}"
173,7930055,66,Portland St,66 Portland St,M5V 2M6,former TORONTO,Toronto,14025448,66,None,,None,9780,Spadina-Fort York (1010),4144159,173,8,No,No, ,pavers,Approved,front of walk,straight rack,Multi-Bike Rack,"{""type"": ""MultiPoint"", ""coordinates"": [[-79.400111474785, 43.6439040274334]]}"
174,7929360,80,York St,80 York St,None,former TORONTO,Toronto,7930910,80,None,,None,4735,Spadina-Fort York (1010),2909786,174,5,Yes,No, ,concrete,Approved,front of walk,angled rack,Multi-Bike Rack (Angled),"{""type"": ""MultiPoint"", ""coordinates"": [[-79.3837809929732, 43.6477071157797]]}"
175,8344830,92,King St E,92 King St E,M5C 2V8,former TORONTO,Toronto,14662429,92,None,,None,3779,Toronto Centre (1313),2403436,175,8,No,No, ,pavers,Approved,front of walk,straight rack,Multi-Bike Rack,"{""type"": ""MultiPoint"", ""coordinates"": [[-79.3749472258235, 43.6500464291675]]}"
176,7930799,124,Spadina Ave,124 Spadina Ave,None,former TORONTO,Toronto,7930670,124,None,,None,4426,Spadina-Fort York (1010),1770550,176,28,No,Yes,No, ,Installed,On Camden St, ,Bike Corral,"{""type"": ""MultiPoint"", ""coordinates"": [[-79.3963385316953, 43.6471839084783]]}"
177,13991178,213,Delaware Ave,213 Delaware Ave,M6H 2T4,former TORONTO,Toronto,20033433,213,None,,None,3283,Davenport (909),2874672,177,8,No,Yes,No, ,Installed, , ,Bike Corral,"{""type"": ""MultiPoint"", ""coordinates"": [[-79.4278708182001, 43.6620573990966]]}"
178,765142,236,Augusta Ave,236 Augusta Ave,M5T 2L7,former TORONTO,Toronto,1144604,236,None,,None,2918,University-Rosedale (1111),2693536,178,24,No,Yes,No, ,Installed, , ,Bike Corral,"{""type"": ""MultiPoint"", ""coordinates"": [[-79.4025948745683, 43.6553455061522]]}"
179,30035742,44,Lisgar St,44 Lisgar St,None,former TORONTO,Toronto,14024655,44,None,,None,3859,Davenport (909),3277255,179,14,No,No,Yes, ,Approved, ,ON HOLD - park construction,Bike Shelter,"{""type"": ""MultiPoint"", ""coordinates"": [[-79.4234411856628, 43.6420865352289]]}"
180,7577064,505,College St,505 College St,M6G 1A5,former TORONTO,Toronto,7577053,505,None,,None,9765,University-Rosedale (1111),2933285,180,14,No,Yes,No, ,Proposed, ,Not installed 2017,Bike Corral,"{""type"": ""MultiPoint"", ""coordinates"": [[-79.4099072952723, 43.6557277595809]]}"
181,14600292,1,Adelaide St E,1 Adelaide St E,M5C 2V9,former TORONTO,Toronto,14036810,1,None,,None,2851,Toronto Centre (1313),3281500,181,5,No,No, ,pavers,Approved,front of walk, ,Multi-Bike Rack (Angled),"{""type"": ""MultiPoint"", ""coordinates"": [[-79.3780482653666, 43.65031082788]]}"
182,505931,10,Deauville Lane,10 Deauville Lane,M3C 3J2,NORTH YORK,Toronto,445087,10,None,,None,5344,Don Valley East (1616),1943625,182,16,No,No, ,pavers,Approved,garden,Straight: call Avelino 416 688 921,Multi-Bike Rack,"{""type"": ""MultiPoint"", ""coordinates"": [[-79.3316690923695, 43.7175451152482]]}"
183,9085483,108,Vine Ave,108 Vine Ave,M6P 1V7,former TORONTO,Toronto,9085469,108,None,,None,4606,Parkdale-High Park (404),3016040,183,8,No,No, ,concrete,Approved,back of walk, ,Multi-Bike Rack,"{""type"": ""MultiPoint"", ""coordinates"": [[-79.4684519108503, 43.6669274964112]]}"
184,828220,145,King St W,145 King St W,M5H 1J8,former TORONTO,Toronto,1145855,145,None,,None,3780,Spadina-Fort York (1010),1622900,184,8,Yes,No, ,concrete,Installed,front of walk, ,Multi-Bike Rack,"{""type"": ""MultiPoint"", ""coordinates"": [[-79.3839226800024, 43.6474556715908]]}"
185,14204767,157,Adelaide St W,157 Adelaide St W,M5H 4E7,former TORONTO,Toronto,7929478,157,None,,None,2852,Spadina-Fort York (1010),2268248,185,8,No,No, ,pavers,Approved,front of walk, ,Multi-Bike Rack,"{""type"": ""MultiPoint"", ""coordinates"": [[-79.3850607472314, 43.6488103116239]]}"
186,828080,187,King St E,187 King St E,M5A 1J5,former TORONTO,Toronto,1145266,187,None,,None,3779,Toronto Centre (1313),2173269,186,5,No,No, ,pavers,Approved,front of walk, ,Multi-Bike Rack (Angled),"{""type"": ""MultiPoint"", ""coordinates"": [[-79.3704366169494, 43.6506004623813]]}"
187,7730263,2,Carlton St,2 Carlton St,M5B 1J3,former TORONTO,Toronto,14023521,2,None,,None,3116,Toronto Centre (1313),2630614,187,5,Yes,No, ,concrete,Approved,front of walk, ,Multi-Bike Rack (Angled),"{""type"": ""MultiPoint"", ""coordinates"": [[-79.3828960214413, 43.6615560194649]]}"
188,30101226,25,Berwick Ave,25 Berwick Ave,None,former TORONTO,Toronto,14024072,25,None,,None,3001,Toronto-St. Paul's (1212),4257862,188,8,No,No, ,concrete,Installed,front of walk,adjacent previous rack,Multi-Bike Rack,"{""type"": ""MultiPoint"", ""coordinates"": [[-79.3984481407676, 43.7038022113874]]}"
189,10180378,322,King St W,322 King St W,M5V 1J2,former TORONTO,Toronto,10180374,322,None,,None,3780,Spadina-Fort York (1010),2290025,189,5,No,No, ,pavers,Approved,front of walk, ,Multi-Bike Rack (Angled),"{""type"": ""MultiPoint"", ""coordinates"": [[-79.389680338675, 43.6469672340119]]}"
190,8417253,329,Geary Ave,329 Geary Ave,M6H 2C6,former TORONTO,Toronto,14630189,329,None,,None,3490,Davenport (909),1777412,190,8,No,No, ,asphalt,Approved,back of walk, ,Multi-Bike Rack,"{""type"": ""MultiPoint"", ""coordinates"": [[-79.4428954110115, 43.6685962542228]]}"
191,8676866,33,Yonge St,33 Yonge St,M5E 1G4,former TORONTO,Toronto,8676863,33,None,,None,4733,Toronto Centre (1313),2689237,191,5,No,No, ,pavers,Installed,front of walk, ,Multi-Bike Rack (Angled),"{""type"": ""MultiPoint"", ""coordinates"": [[-79.376584165477, 43.647559655381]]}"
192,10364794,416,Dawes Rd,416 Dawes Rd,M4B 2E8,EAST YORK,Toronto,10364790,416,None,,None,88,Beaches-East York (1919),2338623,192,8,No,No, ,concrete,Installed,back of walk,S side of library,Multi-Bike Rack,"{""type"": ""MultiPoint"", ""coordinates"": [[-79.2972298270711, 43.7012022928535]]}"
193,3739887,475,Yonge St,475 Yonge St,M4Y 1X7,former TORONTO,Toronto,3739890,475,None,,None,4733,Toronto Centre (1313),2963240,193,5,No,No, ,concrete,Approved,front of walk, ,Multi-Bike Rack (Angled),"{""type"": ""MultiPoint"", ""coordinates"": [[-79.3829914988732, 43.662542331262]]}"
194,772833,481,Bloor St W,481 Bloor St W,M5S 1X9,former TORONTO,Toronto,1142870,481,None,,None,458,University-Rosedale (1111),1755303,194,8,No,No, ,asphalt,Approved,boulevard,straight adjacent to current one,Multi-Bike Rack,"{""type"": ""MultiPoint"", ""coordinates"": [[-79.4071172092532, 43.6657537893633]]}"
195,10223681,499,King St W,499 King St W,M5V 1K4,former TORONTO,Toronto,10223667,499,None,,None,3780,Spadina-Fort York (1010),2755281,195,8,No,No, ,concrete,Approved,front of walk, ,Multi-Bike Rack,"{""type"": ""MultiPoint"", ""coordinates"": [[-79.397506987301, 43.6446284116147]]}"
196,2854061,525,University Ave,525 University Ave,M5G 2L3,former TORONTO,Toronto,2854059,525,None,,None,4583,University-Rosedale (1111),2167439,196,8,No,No, ,pavers,Proposed,front of walk, ,Multi-Bike Rack,"{""type"": ""MultiPoint"", ""coordinates"": [[-79.3882199503094, 43.6562495915081]]}"
197,7792696,555,University Ave,555 University Ave,M5G 1X8,former TORONTO,Toronto,7792694,555,None,,None,4583,University-Rosedale (1111),1591293,197,8,No,No, ,concrete,Proposed,front of walk, ,Multi-Bike Rack,"{""type"": ""MultiPoint"", ""coordinates"": [[-79.3874342320068, 43.6573635657333]]}"
198,10180175,587,King St W,587 King St W,M5V 1M5,former TORONTO,Toronto,14674277,587,None,,None,3780,Spadina-Fort York (1010),2266439,198,8,No,No, ,concrete,Approved,front of walk, ,Multi-Bike Rack,"{""type"": ""MultiPoint"", ""coordinates"": [[-79.4001853211491, 43.6442360534827]]}"
199,14206202,607,Bloor St W,607 Bloor St W,M6G 1K5,former TORONTO,Toronto,8353520,607,None,,None,458,University-Rosedale (1111),2210315,199,5,No,No, ,concrete,Approved,front of walk,angled rack adjacent tree box,Multi-Bike Rack (Angled),"{""type"": ""MultiPoint"", ""coordinates"": [[-79.4132708419764, 43.6645203907742]]}"
200,14235368,661,University Ave,661 University Ave,M5G 1M1,former TORONTO,Toronto,7792702,661,None,,None,4583,University-Rosedale (1111),2841260,200,5,No,No, ,pavers,Proposed,front of walk, ,Multi-Bike Rack (Angled),"{""type"": ""MultiPoint"", ""coordinates"": [[-79.3895475174823, 43.6594471708426]]}"
201,7792705,671,University Ave,671 University Ave,None,former TORONTO,Toronto,7792702,671,None,,None,4583,University-Rosedale (1111),2981787,201,8,Yes,No, ,concrete,Proposed,north side: TTC, ,Multi-Bike Rack,"{""type"": ""MultiPoint"", ""coordinates"": [[-79.3900712067788, 43.6598045610052]]}"
202,7570903,962,Queen St W,962 Queen St W,M6J 1G8,former TORONTO,Toronto,7570894,962,None,,None,4238,Spadina-Fort York (1010),3038700,202,5,No,No, ,concrete,Installed,front of walk, ,Multi-Bike Rack (Angled),"{""type"": ""MultiPoint"", ""coordinates"": [[-79.4172248354794, 43.6447596251305]]}"
203,20068494,1151,Queen St W,1151 Queen St W,M6J 1J4,former TORONTO,Toronto,7553178,1151,None,,None,4238,Davenport (909),2549364,203,14,No,Yes,No, ,Installed, , ,Bike Corral,"{""type"": ""MultiPoint"", ""coordinates"": [[-79.4245496132841, 43.6428738481918]]}"
204,7792447,171,Dundas St W,171 Dundas St W,M5G 1C7,former TORONTO,Toronto,7792444,171,None,,None,558,Spadina-Fort York (1010),2522240,204,14,No,Yes,No, ,Proposed, , ,Bike Corral,"{""type"": ""MultiPoint"", ""coordinates"": [[-79.3861942983105, 43.655065301222]]}"
205,30012845,245,Wallace Ave,245 Wallace Ave,M6H 1V5,former TORONTO,Toronto,14013655,245,None,,None,4617,Davenport (909),3813655,205,14,No,Yes,No, ,Proposed, , ,Bike Corral,"{""type"": ""MultiPoint"", ""coordinates"": [[-79.4465561733281, 43.6617243417858]]}"
206,7641780,251,Victoria St,251 Victoria St,M5B 1T8,former TORONTO,Toronto,7641770,251,None,,None,9790,Toronto Centre (1313),2062125,206,14,No,Yes,No, ,Proposed, , ,Bike Corral,"{""type"": ""MultiPoint"", ""coordinates"": [[-79.3790506572105, 43.6558045563364]]}"
207,9942213,268,College St,268 College St,M5T 1S1,former TORONTO,Toronto,14022731,268,None,,None,9765,University-Rosedale (1111),3298560,207,14,No,Yes,No, ,Proposed, , ,Bike Corral,"{""type"": ""MultiPoint"", ""coordinates"": [[-79.4005149553641, 43.6581487248445]]}"
208,10222743,325,King St W,325 King St W,M5V 1J5,former TORONTO,Toronto,10222742,325,None,,None,3780,Spadina-Fort York (1010),2364947,208,14,No,Yes,No, ,Proposed, , ,Bike Corral,"{""type"": ""MultiPoint"", ""coordinates"": [[-79.3910234639679, 43.6461386323018]]}"
209,7929471,360,Bay St,360 Bay St,M5H 2V6,former TORONTO,Toronto,7929469,360,None,,None,2962,Spadina-Fort York (1010),2024744,209,28,No,Yes,No, ,Proposed, , ,Bike Corral,"{""type"": ""MultiPoint"", ""coordinates"": [[-79.3814390312153, 43.6507248478872]]}"
210,10223672,455,King St W,455 King St W,M5V 1K4,former TORONTO,Toronto,10223667,455,None,,None,3780,Spadina-Fort York (1010),2896822,210,14,No,Yes,No, ,Proposed, , ,Bike Corral,"{""type"": ""MultiPoint"", ""coordinates"": [[-79.3960200182592, 43.6449926683861]]}"
211,828038,50,King St E,50 King St E,M5C 1E5,former TORONTO,Toronto,1145520,50,None,,None,3779,Toronto Centre (1313),3006364,211,14,No,Yes,No, ,Proposed, , ,Bike Corral,"{""type"": ""MultiPoint"", ""coordinates"": [[-79.3762416344609, 43.6497660862272]]}"
212,30043514,58,Macaulay Ave,58 Macaulay Ave,M6P 3P6,former TORONTO,Toronto,30043036,58,None,,None,20848,Davenport (909),4318570,212,14,No,Yes,No, ,Proposed, , ,Bike Corral,"{""type"": ""MultiPoint"", ""coordinates"": [[-79.4533262142228, 43.6614331515389]]}"
213,7846349,76,Kensington Ave,76 Kensington Ave,M5T 2K1,former TORONTO,Toronto,7846321,76,None,,None,9813,University-Rosedale (1111),2754723,213,14,No,Yes,No, ,Installed, , ,Bike Corral,"{""type"": ""MultiPoint"", ""coordinates"": [[-79.400924005423, 43.6545455601628]]}"
214,7792706,700,University Ave,700 University Ave,M5G 1X7,former TORONTO,Toronto,7792702,700,None,,None,4583,University-Rosedale (1111),2429229,214,14,No,Yes, , ,Installed, , ,Bike Corral,"{""type"": ""MultiPoint"", ""coordinates"": [[-79.3911880757558, 43.6590077232405]]}"
215,879005,1,Wales Ave,1 Wales Ave,M5T 1J2,former TORONTO,Toronto,1144936,1,None,,None,4615,University-Rosedale (1111),2801910,215,14,No,Yes, , ,Proposed, , ,Bike Corral,"{""type"": ""MultiPoint"", ""coordinates"": [[-79.4016541642788, 43.6531393778546]]}"
216,10223856,267,Richmond St W,267 Richmond St W,M5V 3M6,former TORONTO,Toronto,10223853,267,None,,None,4277,Spadina-Fort York (1010),4146385,216,14,No,Yes, , ,Installed, , ,Bike Corral,"{""type"": ""MultiPoint"", ""coordinates"": [[-79.3916622946625, 43.6487348731713]]}"
217,8292978,300,Campbell Ave,300 Campbell Ave,M6P 3V6,former TORONTO,Toronto,14013754,300,None,,None,3109,Davenport (909),4144320,217,14,No,Yes,No, ,Installed,In pay and display, ,Bike Corral,"{""type"": ""MultiPoint"", ""coordinates"": [[-79.4501491970694, 43.6656792456797]]}"
218,13971017,1175,Dundas St E,1175 Dundas St E,None,former TORONTO,Toronto,7576983,1175,None,,None,3334,Toronto-Danforth (1414),2218326,218,5,No,No, ,concrete,Installed,back of walk,Angled,Multi-Bike Rack (Angled),"{""type"": ""MultiPoint"", ""coordinates"": [[-79.3417606000312, 43.6644593860797]]}"
219,857005,1360,Queen St W,1360 Queen St W,M6K 1L7,former TORONTO,Toronto,1146832,1360,None,,None,4238,Parkdale-High Park (404),2589451,219,8,No,No, ,concrete,Installed,back of walk,Stacker,Multi-Bike Rack,"{""type"": ""MultiPoint"", ""coordinates"": [[-79.4328131013079, 43.6416301079083]]}"
220,9212134,166,Alberta Ave,166 Alberta Ave,None,former TORONTO,Toronto,9212137,166,None,,None,404,Davenport (909),3187415,220,5,No,No, ,concrete,Installed,end of Alberta,Angled,Multi-Bike Rack (Angled),"{""type"": ""MultiPoint"", ""coordinates"": [[-79.4339879435719, 43.6803158876593]]}"
221,10906828,180,Elizabeth St,180 Elizabeth St,None,former TORONTO,Toronto,10906830,180,None,,None,9766,University-Rosedale (1111),1576283,221,5,No,No, ,concrete,Installed,front of walk,Angled,Multi-Bike Rack (Angled),"{""type"": ""MultiPoint"", ""coordinates"": [[-79.3864697233447, 43.6577754677845]]}"
222,12464520,2246,Lake Shore Blvd W,2246 Lake Shore Blvd W,M8V 1A5,ETOBICOKE,Toronto,12464517,2246,None,,None,1962,Etobicoke-Lakeshore (303),2897074,222,8,No,No, ,concrete,Installed,back of walk,Stacker,Multi-Bike Rack,"{""type"": ""MultiPoint"", ""coordinates"": [[-79.4834708718911, 43.6209978264526]]}"
223,3259899,25,Overlea Blvd,25 Overlea Blvd,M4H 1P9,EAST YORK,Toronto,3259897,25,None,,None,278,Don Valley West (1515),3136158,223,8,No,No, ,concrete pad,Installed,boulevard,Stacker,Multi-Bike Rack,"{""type"": ""MultiPoint"", ""coordinates"": [[-79.3498166394491, 43.70435069335]]}"
224,7796281,285,Dundas St W,285 Dundas St W,M5T 1G1,former TORONTO,Toronto,7796276,285,None,,None,558,Spadina-Fort York (1010),2196493,224,5,No,No, ,concrete,Proposed,front of walk,Angled,Multi-Bike Rack (Angled),"{""type"": ""MultiPoint"", ""coordinates"": [[-79.3909026634032, 43.6542089841876]]}"
225,7777919,3060,Yonge St,3060 Yonge St,None,former TORONTO,Toronto,7762807,3060,None,,None,4733,Eglinton-Lawrence (808),2681082,225,8,Yes,No, ,concrete,Proposed,front of walk,Stacker,Multi-Bike Rack,"{""type"": ""MultiPoint"", ""coordinates"": [[-79.4025142658547, 43.7251780536494]]}"
226,7850057,3205,Yonge St,3205 Yonge St,M4N 2L3,former TORONTO,Toronto,7850028,3205,None,,None,4733,Don Valley West (1515),1694832,226,8,No,No, ,concrete,Installed,back of walk,Stacker,Multi-Bike Rack,"{""type"": ""MultiPoint"", ""coordinates"": [[-79.4027093518893, 43.7280111261944]]}"
227,8417594,384,Bloor St W,384 Bloor St W,M5S 1X2,former TORONTO,Toronto,8417592,384,None,,None,458,University-Rosedale (1111),2164649,227,8,No,No, ,asphalt,Installed, ,Stacker,Multi-Bike Rack,"{""type"": ""MultiPoint"", ""coordinates"": [[-79.4065841125542, 43.6663188368912]]}"
228,8680823,4,Thorncliffe Park Dr,4 Thorncliffe Park Dr,M4H 1H1,EAST YORK,Toronto,8680820,4,None,,None,354,Don Valley West (1515),2817076,228,8,No,No, ,concrete pad,Installed,boulevard,Stacker,Multi-Bike Rack,"{""type"": ""MultiPoint"", ""coordinates"": [[-79.3509147455975, 43.706171864224]]}"
229,7730103,415,Yonge St,415 Yonge St,M5B 2E7,former TORONTO,Toronto,7730098,415,None,,None,4733,Toronto Centre (1313),3836233,229,8,No,No, ,concrete,Installed,front of walk,Stacker,Multi-Bike Rack,"{""type"": ""MultiPoint"", ""coordinates"": [[-79.3819666068162, 43.659782365876]]}"
230,6349941,438,University Ave,438 University Ave,M5G 2K8,former TORONTO,Toronto,6349934,438,None,,None,4583,Spadina-Fort York (1010),1712532,230,8,Yes,No, ,concrete,Installed,front of walk,Stacker,Multi-Bike Rack,"{""type"": ""MultiPoint"", ""coordinates"": [[-79.3887763976688, 43.6543626946256]]}"
231,30013532,5,Sheppard Ave E,5 Sheppard Ave E,M2N 0G4,NORTH YORK,Toronto,11835329,5,None,,None,6698,Willowdale (1818),1769682,231,8,No,No, ,concrete,Installed,front of walk,Stacker,Multi-Bike Rack,"{""type"": ""MultiPoint"", ""coordinates"": [[-79.4098022448089, 43.7614006012349]]}"
232,3841975,5100,Yonge St,5100 Yonge St,M2N 5V7,NORTH YORK,Toronto,3841982,5100,None,,None,4733,Willowdale (1818),3837871,232,64,No,No, , ,Installed, , ,Multi-Bike Rack,"{""type"": ""MultiPoint"", ""coordinates"": [[-79.4148887450114, 43.7672678891958]]}"
233,785468,703,College St,703 College St,M6G 1C2,former TORONTO,Toronto,1144625,703,None,,None,9765,University-Rosedale (1111),1591368,233,8,No,No, ,asphalt,Proposed,boulevard,Stacker,Multi-Bike Rack,"{""type"": ""MultiPoint"", ""coordinates"": [[-79.4179728256941, 43.6550690096708]]}"
234,14121163,750,Bay St,750 Bay St,M5G 1N6,former TORONTO,Toronto,7792579,750,None,,None,2962,University-Rosedale (1111),2104056,234,8,No,No, ,pavers,Installed,front of walk,Stacker,Multi-Bike Rack,"{""type"": ""MultiPoint"", ""coordinates"": [[-79.385922938112, 43.6596578702687]]}"
235,8695865,1210,Yonge St,1210 Yonge St,M4T 1W1,former TORONTO,Toronto,8681095,1210,None,,None,4733,Toronto-St. Paul's (1212),2973936,235,10,Yes,No, ,concrete,Installed,front of walk, ,Multi-Bike Rack,"{""type"": ""MultiPoint"", ""coordinates"": [[-79.391737955379, 43.6817458182319]]}"
236,11272589,2190,Yonge St,2190 Yonge St,M4S 2B8,former TORONTO,Toronto,14230407,2190,None,,None,4733,Toronto-St. Paul's (1212),1657924,236,16,Yes,No, ,concrete,Installed,front of walk, ,Multi-Bike Rack,"{""type"": ""MultiPoint"", ""coordinates"": [[-79.398354474049, 43.7053382317137]]}"
237,30114495,2391,Lake Shore Blvd W,2391 Lake Shore Blvd W,M8V 1B7,ETOBICOKE,Toronto,913792,2391,None,,None,1962,Etobicoke-Lakeshore (303),4332502,237,8,No,No, ,paver,Installed,adjacent to planter, ,Multi-Bike Rack,"{""type"": ""MultiPoint"", ""coordinates"": [[-79.4883603535509, 43.6150886595306]]}"
238,7568709,2404-2406,Lake Shore Blvd W,2404-2406 Lake Shore Blvd W,M8V 1C4,ETOBICOKE,Toronto,7568677,2404,None,2406,None,1962,Etobicoke-Lakeshore (303),2151245,238,8,No,No, ,paver,Installed,adjacent to planter, ,Multi-Bike Rack,"{""type"": ""MultiPoint"", ""coordinates"": [[-79.4890641907246, 43.6148772137222]]}"
239,30032007,390,Cherry St,390 Cherry St,M5A 0E2,former TORONTO,Toronto,30029398,390,None,,None,3154,Spadina-Fort York (1010),3233254,239,32,No,No, ,brick paver,Approved,front of walk, ,Multi-Bike Rack,"{""type"": ""MultiPoint"", ""coordinates"": [[-79.3572672377436, 43.6505718788597]]}"
240,30114600,4,Boulton Ave,4 Boulton Ave,M4M 2J3,former TORONTO,Toronto,20043108,4,None,,None,3039,Toronto-Danforth (1414),4333574,240,6,No,No, ,concrete,Approved,back of walk, ,Multi-Bike Rack (Angled),"{""type"": ""MultiPoint"", ""coordinates"": [[-79.3469846874926, 43.6598301324483]]}"
241,10335148,538,Lansdowne Ave,538 Lansdowne Ave,None,former TORONTO,Toronto,14012788,538,None,,None,3814,Davenport (909),1637657,241,32,Yes,No, ,concrete,Approved,back of walk, ,Multi-Bike Rack,"{""type"": ""MultiPoint"", ""coordinates"": [[-79.443268740869, 43.6589115383952]]}"
